{
  "type": "FeatureCollection",
  "features": [
    {
      "type": "Feature",
      "properties": {
        "norad_id": 30947,
        "name": "FENGYUN 1C DEB",
        "group": "fengyun-1c-debris",
        "lat": -39.28984392651324,
        "lon": 47.16727394438579,
        "alt_km": 714.2978075696828,
        "timestamp": "2025-12-10T20:49:52.833188+00:00",
        "meta_object_name": "FENGYUN 1C DEB",
        "meta_object_id": "1999-025BAM",
        "meta_epoch": "2025-12-09T03:43:37.602912",
        "meta_mean_motion": 14.38029909,
        "meta_eccentricity": 0.00957302,
        "meta_inclination": 98.8088,
        "meta_ra_of_asc_node": 232.7007,
        "meta_arg_of_pericenter": 258.4535,
        "meta_mean_anomaly": 100.5891,
        "meta_ephemeris_type": 0,
        "meta_classification_type": "U",
        "meta_norad_cat_id": 30947,
        "meta_element_set_no": 999,
        "meta_rev_at_epoch": 98441,
        "meta_bstar": 0.00047572934,
        "meta_mean_motion_dot": 1.469e-05,
        "meta_mean_motion_ddot": 0,
        "tle_line1": "1 30947U 99025BAM 25343.15529633  .00001469  00000+0  47573-3 0  9997",
        "tle_line2": "2 30947  98.8088 232.7007 0095730 258.4535 100.5891 14.38029909984418"
      },
      "geometry": {
        "type": "Point",
        "coordinates": [
          47.16727394438579,
          -39.28984392651324
        ]
      }
    },
    {
      "type": "Feature",
      "properties": {
        "norad_id": 30949,
        "name": "FENGYUN 1C DEB",
        "group": "fengyun-1c-debris",
        "lat": -49.825197513747575,
        "lon": -10.286653216915232,
        "alt_km": 768.6945471009831,
        "timestamp": "2025-12-10T20:49:52.833201+00:00",
        "meta_object_name": "FENGYUN 1C DEB",
        "meta_object_id": "1999-025BAP",
        "meta_epoch": "2025-12-09T18:44:39.278688",
        "meta_mean_motion": 14.14043332,
        "meta_eccentricity": 0.01164471,
        "meta_inclination": 98.6974,
        "meta_ra_of_asc_node": 338.21,
        "meta_arg_of_pericenter": 318.3292,
        "meta_mean_anomaly": 221.1179,
        "meta_ephemeris_type": 0,
        "meta_classification_type": "U",
        "meta_norad_cat_id": 30949,
        "meta_element_set_no": 999,
        "meta_rev_at_epoch": 96474,
        "meta_bstar": 0.00042754958,
        "meta_mean_motion_dot": 8.24e-06,
        "meta_mean_motion_ddot": 0,
        "tle_line1": "1 30949U 99025BAP 25343.78101017  .00000824  00000+0  42755-3 0  9991",
        "tle_line2": "2 30949  98.6974 338.2100 0116447 318.3292 221.1179 14.14043332964746"
      },
      "geometry": {
        "type": "Point",
        "coordinates": [
          -10.286653216915232,
          -49.825197513747575
        ]
      }
    },
    {
      "type": "Feature",
      "properties": {
        "norad_id": 30954,
        "name": "FENGYUN 1C DEB",
        "group": "fengyun-1c-debris",
        "lat": -12.491383402220753,
        "lon": 86.97144726240974,
        "alt_km": 930.9260438229694,
        "timestamp": "2025-12-10T20:49:52.833211+00:00",
        "meta_object_name": "FENGYUN 1C DEB",
        "meta_object_id": "1999-025BAU",
        "meta_epoch": "2025-12-10T12:28:56.488800",
        "meta_mean_motion": 14.14914372,
        "meta_eccentricity": 0.01287343,
        "meta_inclination": 98.7121,
        "meta_ra_of_asc_node": 84.6851,
        "meta_arg_of_pericenter": 193.6047,
        "meta_mean_anomaly": 182.267,
        "meta_ephemeris_type": 0,
        "meta_classification_type": "U",
        "meta_norad_cat_id": 30954,
        "meta_element_set_no": 999,
        "meta_rev_at_epoch": 96356,
        "meta_bstar": 0.0021149817,
        "meta_mean_motion_dot": 4.386e-05,
        "meta_mean_motion_ddot": 0,
        "tle_line1": "1 30954U 99025BAU 25344.52009825  .00004386  00000+0  21150-2 0  9996",
        "tle_line2": "2 30954  98.7121  84.6851 0128734 193.6047 182.2670 14.14914372963569"
      },
      "geometry": {
        "type": "Point",
        "coordinates": [
          86.97144726240974,
          -12.491383402220753
        ]
      }
    },
    {
      "type": "Feature",
      "properties": {
        "norad_id": 30956,
        "name": "FENGYUN 1C DEB",
        "group": "fengyun-1c-debris",
        "lat": -11.66634594946605,
        "lon": 20.744341611108354,
        "alt_km": 813.7622552695257,
        "timestamp": "2025-12-10T20:49:52.833221+00:00",
        "meta_object_name": "FENGYUN 1C DEB",
        "meta_object_id": "1999-025BAW",
        "meta_epoch": "2025-12-10T13:10:25.664160",
        "meta_mean_motion": 14.14195563,
        "meta_eccentricity": 0.00492432,
        "meta_inclination": 98.7601,
        "meta_ra_of_asc_node": 18.6071,
        "meta_arg_of_pericenter": 349.3984,
        "meta_mean_anomaly": 175.4324,
        "meta_ephemeris_type": 0,
        "meta_classification_type": "U",
        "meta_norad_cat_id": 30956,
        "meta_element_set_no": 999,
        "meta_rev_at_epoch": 96276,
        "meta_bstar": 0.0013721032,
        "meta_mean_motion_dot": 2.604e-05,
        "meta_mean_motion_ddot": 0,
        "tle_line1": "1 30956U 99025BAW 25344.54890815  .00002604  00000+0  13721-2 0  9993",
        "tle_line2": "2 30956  98.7601  18.6071 0049243 349.3984 175.4324 14.14195563962766"
      },
      "geometry": {
        "type": "Point",
        "coordinates": [
          20.744341611108354,
          -11.66634594946605
        ]
      }
    },
    {
      "type": "Feature",
      "properties": {
        "norad_id": 30960,
        "name": "FENGYUN 1C DEB",
        "group": "fengyun-1c-debris",
        "lat": -1.6588951245071573,
        "lon": -79.59810021282757,
        "alt_km": 539.829763274076,
        "timestamp": "2025-12-10T20:49:52.833231+00:00",
        "meta_object_name": "FENGYUN 1C DEB",
        "meta_object_id": "1999-025BBA",
        "meta_epoch": "2025-12-09T03:04:47.835552",
        "meta_mean_motion": 14.66749109,
        "meta_eccentricity": 0.01966665,
        "meta_inclination": 99.0003,
        "meta_ra_of_asc_node": 98.7561,
        "meta_arg_of_pericenter": 172.9505,
        "meta_mean_anomaly": 187.4537,
        "meta_ephemeris_type": 0,
        "meta_classification_type": "U",
        "meta_norad_cat_id": 30960,
        "meta_element_set_no": 999,
        "meta_rev_at_epoch": 98645,
        "meta_bstar": 0.0019392811,
        "meta_mean_motion_dot": 0.00014404,
        "meta_mean_motion_ddot": 0,
        "tle_line1": "1 30960U 99025BBA 25343.12833143  .00014404  00000+0  19393-2 0  9994",
        "tle_line2": "2 30960  99.0003  98.7561 0196666 172.9505 187.4537 14.66749109986454"
      },
      "geometry": {
        "type": "Point",
        "coordinates": [
          -79.59810021282757,
          -1.6588951245071573
        ]
      }
    },
    {
      "type": "Feature",
      "properties": {
        "norad_id": 30967,
        "name": "FENGYUN 1C DEB",
        "group": "fengyun-1c-debris",
        "lat": 65.03436399197568,
        "lon": 130.33874726905955,
        "alt_km": 740.6672954901387,
        "timestamp": "2025-12-10T20:49:52.833241+00:00",
        "meta_object_name": "FENGYUN 1C DEB",
        "meta_object_id": "1999-025BBH",
        "meta_epoch": "2025-12-10T13:42:43.830432",
        "meta_mean_motion": 14.57113283,
        "meta_eccentricity": 0.0094684,
        "meta_inclination": 98.7637,
        "meta_ra_of_asc_node": 290.6771,
        "meta_arg_of_pericenter": 246.3593,
        "meta_mean_anomaly": 112.7643,
        "meta_ephemeris_type": 0,
        "meta_classification_type": "U",
        "meta_norad_cat_id": 30967,
        "meta_element_set_no": 999,
        "meta_rev_at_epoch": 98982,
        "meta_bstar": 0.0013515011,
        "meta_mean_motion_dot": 6.424e-05,
        "meta_mean_motion_ddot": 0,
        "tle_line1": "1 30967U 99025BBH 25344.57134063  .00006424  00000+0  13515-2 0  9999",
        "tle_line2": "2 30967  98.7637 290.6771 0094684 246.3593 112.7643 14.57113283989827"
      },
      "geometry": {
        "type": "Point",
        "coordinates": [
          130.33874726905955,
          65.03436399197568
        ]
      }
    },
    {
      "type": "Feature",
      "properties": {
        "norad_id": 30971,
        "name": "FENGYUN 1C DEB",
        "group": "fengyun-1c-debris",
        "lat": -40.74448329788119,
        "lon": -159.56303939531523,
        "alt_km": 556.9728937034279,
        "timestamp": "2025-12-10T20:49:52.833251+00:00",
        "meta_object_name": "FENGYUN 1C DEB",
        "meta_object_id": "1999-025BBM",
        "meta_epoch": "2025-12-10T02:01:12.904032",
        "meta_mean_motion": 14.71662877,
        "meta_eccentricity": 0.01637579,
        "meta_inclination": 99.2097,
        "meta_ra_of_asc_node": 27.5852,
        "meta_arg_of_pericenter": 199.3807,
        "meta_mean_anomaly": 191.0155,
        "meta_ephemeris_type": 0,
        "meta_classification_type": "U",
        "meta_norad_cat_id": 30971,
        "meta_element_set_no": 999,
        "meta_rev_at_epoch": 99678,
        "meta_bstar": 0.00091147948,
        "meta_mean_motion_dot": 6.94e-05,
        "meta_mean_motion_ddot": 0,
        "tle_line1": "1 30971U 99025BBM 25344.08417713  .00006940  00000+0  91148-3 0  9998",
        "tle_line2": "2 30971  99.2097  27.5852 0163757 199.3807 191.0155 14.71662877996783"
      },
      "geometry": {
        "type": "Point",
        "coordinates": [
          -159.56303939531523,
          -40.74448329788119
        ]
      }
    }
  ]
}